[{"OBJECT_NAME":"CORVUS BC4","OBJECT_ID":"2018-099K","EPOCH":"2026-03-09T15:49:18.108768","MEAN_MOTION":15.1161571,"ECCENTRICITY":0.00080458,"INCLINATION":97.4206,"RA_OF_ASC_NODE":114.5457,"ARG_OF_PERICENTER":356.5821,"MEAN_ANOMALY":3.5354,"EPHEMERIS_TYPE":0,"CLASSIFICATION_TYPE":"U","NORAD_CAT_ID":43767,"ELEMENT_SET_NO":999,"REV_AT_EPOCH":39736,"BSTAR":0.00033979895,"MEAN_MOTION_DOT":5.714e-5,"MEAN_MOTION_DDOT":0},{"OBJECT_NAME":"STARLINK-5542","OBJECT_ID":"2023-088AD","EPOCH":"2026-03-09T22:00:01.999584","MEAN_MOTION":15.0978121,"ECCENTRICITY":0.00024457,"INCLINATION":43.0008,"RA_OF_ASC_NODE":93.351,"ARG_OF_PERICENTER":264.4889,"MEAN_ANOMALY":53.9272,"EPHEMERIS_TYPE":0,"CLASSIFICATION_TYPE":"U","NORAD_CAT_ID":57075,"ELEMENT_SET_NO":999,"REV_AT_EPOCH":577,"BSTAR":0.0054518783,"MEAN_MOTION_DOT":0.00090511,"MEAN_MOTION_DDOT":0}]
